CCSDS_OMM_VERS = 2.0
CREATION_DATE  = 
ORIGINATOR     = 

OBJECT_NAME    = STARLINK-36523
OBJECT_ID      = 2026-008R
CENTER_NAME    = EARTH
REF_FRAME      = TEME
TIME_SYSTEM    = UTC
MEAN_ELEMENT_THEORY = SGP/SGP4

EPOCH          = 2026-01-31T20:00:01.999008
MEAN_MOTION    = 15.75066419
ECCENTRICITY   = .0001576
INCLINATION    = 43.0004
RA_OF_ASC_NODE = 57.1013
ARG_OF_PERICENTER = 265.6378
MEAN_ANOMALY   = 64.0911

EPHEMERIS_TYPE = 0
CLASSIFICATION_TYPE = U
NORAD_CAT_ID   = 67460
ELEMENT_SET_NO = 999
REV_AT_EPOCH   = 389
BSTAR          = -.31862E-3
MEAN_MOTION_DOT = -.49195E-3
MEAN_MOTION_DDOT = 0

CCSDS_OMM_VERS = 2.0
CREATION_DATE  = 
ORIGINATOR     = 

OBJECT_NAME    = STARLINK-36522
OBJECT_ID      = 2026-008S
CENTER_NAME    = EARTH
REF_FRAME      = TEME
TIME_SYSTEM    = UTC
MEAN_ELEMENT_THEORY = SGP/SGP4

EPOCH          = 2026-01-31T20:00:01.999008
MEAN_MOTION    = 15.75030526
ECCENTRICITY   = .0001528
INCLINATION    = 43.0004
RA_OF_ASC_NODE = 57.0960
ARG_OF_PERICENTER = 263.9932
MEAN_ANOMALY   = 67.6569

EPHEMERIS_TYPE = 0
CLASSIFICATION_TYPE = U
NORAD_CAT_ID   = 67461
ELEMENT_SET_NO = 999
REV_AT_EPOCH   = 387
BSTAR          = .11791E-3
MEAN_MOTION_DOT = .17665E-3
MEAN_MOTION_DDOT = 0

CCSDS_OMM_VERS = 2.0
CREATION_DATE  = 
ORIGINATOR     = 

OBJECT_NAME    = STARLINK-36504
OBJECT_ID      = 2026-008T
CENTER_NAME    = EARTH
REF_FRAME      = TEME
TIME_SYSTEM    = UTC
MEAN_ELEMENT_THEORY = SGP/SGP4

EPOCH          = 2026-01-31T20:00:01.999008
MEAN_MOTION    = 15.75066357
ECCENTRICITY   = .0001361
INCLINATION    = 43.0003
RA_OF_ASC_NODE = 57.0912
ARG_OF_PERICENTER = 268.9235
MEAN_ANOMALY   = 64.6377

EPHEMERIS_TYPE = 0
CLASSIFICATION_TYPE = U
NORAD_CAT_ID   = 67462
ELEMENT_SET_NO = 999
REV_AT_EPOCH   = 389
BSTAR          = -.32254E-3
MEAN_MOTION_DOT = -.49789E-3
MEAN_MOTION_DDOT = 0

CCSDS_OMM_VERS = 2.0
CREATION_DATE  = 
ORIGINATOR     = 

OBJECT_NAME    = STARLINK-36505
OBJECT_ID      = 2026-008U
CENTER_NAME    = EARTH
REF_FRAME      = TEME
TIME_SYSTEM    = UTC
MEAN_ELEMENT_THEORY = SGP/SGP4

EPOCH          = 2026-01-31T20:00:01.999008
MEAN_MOTION    = 15.75076345
ECCENTRICITY   = .0001578
INCLINATION    = 43.0004
RA_OF_ASC_NODE = 57.0871
ARG_OF_PERICENTER = 275.0710
MEAN_ANOMALY   = 60.4035

EPHEMERIS_TYPE = 0
CLASSIFICATION_TYPE = U
NORAD_CAT_ID   = 67463
ELEMENT_SET_NO = 999
REV_AT_EPOCH   = 387
BSTAR          = -.41647E-3
MEAN_MOTION_DOT = -.64072E-3
MEAN_MOTION_DDOT = 0

CCSDS_OMM_VERS = 2.0
CREATION_DATE  = 
ORIGINATOR     = 

OBJECT_NAME    = STARLINK-36421
OBJECT_ID      = 2026-008V
CENTER_NAME    = EARTH
REF_FRAME      = TEME
TIME_SYSTEM    = UTC
MEAN_ELEMENT_THEORY = SGP/SGP4

EPOCH          = 2026-01-31T20:00:01.999008
MEAN_MOTION    = 15.75031082
ECCENTRICITY   = .0001766
INCLINATION    = 43.0004
RA_OF_ASC_NODE = 57.0820
ARG_OF_PERICENTER = 248.4423
MEAN_ANOMALY   = 88.9594

EPHEMERIS_TYPE = 0
CLASSIFICATION_TYPE = U
NORAD_CAT_ID   = 67464
ELEMENT_SET_NO = 999
REV_AT_EPOCH   = 387
BSTAR          = .83179E-4
MEAN_MOTION_DOT = .12314E-3
MEAN_MOTION_DDOT = 0

CCSDS_OMM_VERS = 2.0
CREATION_DATE  = 
ORIGINATOR     = 

OBJECT_NAME    = STARLINK-36437
OBJECT_ID      = 2026-008W
CENTER_NAME    = EARTH
REF_FRAME      = TEME
TIME_SYSTEM    = UTC
MEAN_ELEMENT_THEORY = SGP/SGP4

EPOCH          = 2026-01-31T20:00:01.999008
MEAN_MOTION    = 15.75066080
ECCENTRICITY   = .000158
INCLINATION    = 43.0002
RA_OF_ASC_NODE = 57.0766
ARG_OF_PERICENTER = 257.2270
MEAN_ANOMALY   = 82.0859

EPHEMERIS_TYPE = 0
CLASSIFICATION_TYPE = U
NORAD_CAT_ID   = 67465
ELEMENT_SET_NO = 999
REV_AT_EPOCH   = 387
BSTAR          = -.37349E-3
MEAN_MOTION_DOT = -.57528E-3
MEAN_MOTION_DDOT = 0

CCSDS_OMM_VERS = 2.0
CREATION_DATE  = 
ORIGINATOR     = 

OBJECT_NAME    = STARLINK-36520
OBJECT_ID      = 2026-008X
CENTER_NAME    = EARTH
REF_FRAME      = TEME
TIME_SYSTEM    = UTC
MEAN_ELEMENT_THEORY = SGP/SGP4

EPOCH          = 2026-01-31T20:00:01.999008
MEAN_MOTION    = 15.75065075
ECCENTRICITY   = .0001562
INCLINATION    = 43.0001
RA_OF_ASC_NODE = 57.0715
ARG_OF_PERICENTER = 253.4872
MEAN_ANOMALY   = 87.7377

EPHEMERIS_TYPE = 0
CLASSIFICATION_TYPE = U
NORAD_CAT_ID   = 67466
ELEMENT_SET_NO = 999
REV_AT_EPOCH   = 387
BSTAR          = -.37571E-3
MEAN_MOTION_DOT = -.57861E-3
MEAN_MOTION_DDOT = 0

CCSDS_OMM_VERS = 2.0
CREATION_DATE  = 
ORIGINATOR     = 

OBJECT_NAME    = STARLINK-36425
OBJECT_ID      = 2026-008Y
CENTER_NAME    = EARTH
REF_FRAME      = TEME
TIME_SYSTEM    = UTC
MEAN_ELEMENT_THEORY = SGP/SGP4

EPOCH          = 2026-01-31T20:00:01.999008
MEAN_MOTION    = 15.74926712
ECCENTRICITY   = .0001073
INCLINATION    = 43.0002
RA_OF_ASC_NODE = 57.0668
ARG_OF_PERICENTER = 256.3490
MEAN_ANOMALY   = 86.8014

EPHEMERIS_TYPE = 0
CLASSIFICATION_TYPE = U
NORAD_CAT_ID   = 67467
ELEMENT_SET_NO = 999
REV_AT_EPOCH   = 387
BSTAR          = -.15466E-1
MEAN_MOTION_DOT = -.2077776E-1
MEAN_MOTION_DDOT = 0

CCSDS_OMM_VERS = 2.0
CREATION_DATE  = 
ORIGINATOR     = 

OBJECT_NAME    = STARLINK-36414
OBJECT_ID      = 2026-008Z
CENTER_NAME    = EARTH
REF_FRAME      = TEME
TIME_SYSTEM    = UTC
MEAN_ELEMENT_THEORY = SGP/SGP4

EPOCH          = 2026-01-31T20:00:01.999008
MEAN_MOTION    = 15.75237020
ECCENTRICITY   = .0002044
INCLINATION    = 43.0006
RA_OF_ASC_NODE = 56.7954
ARG_OF_PERICENTER = 273.6526
MEAN_ANOMALY   = 177.6659

EPHEMERIS_TYPE = 0
CLASSIFICATION_TYPE = U
NORAD_CAT_ID   = 67468
ELEMENT_SET_NO = 999
REV_AT_EPOCH   = 387
BSTAR          = -.23188E-2
MEAN_MOTION_DOT = -.345512E-2
MEAN_MOTION_DDOT = 0

CCSDS_OMM_VERS = 2.0
CREATION_DATE  = 
ORIGINATOR     = 

OBJECT_NAME    = STARLINK-36441
OBJECT_ID      = 2026-008AA
CENTER_NAME    = EARTH
REF_FRAME      = TEME
TIME_SYSTEM    = UTC
MEAN_ELEMENT_THEORY = SGP/SGP4

EPOCH          = 2026-01-31T20:00:01.999008
MEAN_MOTION    = 15.75146790
ECCENTRICITY   = .0001987
INCLINATION    = 43.0004
RA_OF_ASC_NODE = 56.7839
ARG_OF_PERICENTER = 258.7329
MEAN_ANOMALY   = 196.4818

EPHEMERIS_TYPE = 0
CLASSIFICATION_TYPE = U
NORAD_CAT_ID   = 67469
ELEMENT_SET_NO = 999
REV_AT_EPOCH   = 387
BSTAR          = -.1226E-2
MEAN_MOTION_DOT = -.185608E-2
MEAN_MOTION_DDOT = 0

CCSDS_OMM_VERS = 2.0
CREATION_DATE  = 
ORIGINATOR     = 

OBJECT_NAME    = STARLINK-36454
OBJECT_ID      = 2026-008AB
CENTER_NAME    = EARTH
REF_FRAME      = TEME
TIME_SYSTEM    = UTC
MEAN_ELEMENT_THEORY = SGP/SGP4

EPOCH          = 2026-01-31T20:00:01.999008
MEAN_MOTION    = 15.75034196
ECCENTRICITY   = .0001729
INCLINATION    = 43.0051
RA_OF_ASC_NODE = 56.7787
ARG_OF_PERICENTER = 270.2726
MEAN_ANOMALY   = 186.8920

EPHEMERIS_TYPE = 0
CLASSIFICATION_TYPE = U
NORAD_CAT_ID   = 67470
ELEMENT_SET_NO = 999
REV_AT_EPOCH   = 387
BSTAR          = -.23105E-4
MEAN_MOTION_DOT = -.4025E-4
MEAN_MOTION_DDOT = 0

CCSDS_OMM_VERS = 2.0
CREATION_DATE  = 
ORIGINATOR     = 

OBJECT_NAME    = STARLINK-36334
OBJECT_ID      = 2026-008AC
CENTER_NAME    = EARTH
REF_FRAME      = TEME
TIME_SYSTEM    = UTC
MEAN_ELEMENT_THEORY = SGP/SGP4

EPOCH          = 2026-01-31T20:00:01.999008
MEAN_MOTION    = 15.74955655
ECCENTRICITY   = .0000968
INCLINATION    = 43.0004
RA_OF_ASC_NODE = 56.7890
ARG_OF_PERICENTER = 281.9663
MEAN_ANOMALY   = 171.3454

EPHEMERIS_TYPE = 0
CLASSIFICATION_TYPE = U
NORAD_CAT_ID   = 67471
ELEMENT_SET_NO = 999
REV_AT_EPOCH   = 387
BSTAR          = .99619E-3
MEAN_MOTION_DOT = .154817E-2
MEAN_MOTION_DDOT = 0

