STARLINK-36523          
1 67460U 26008R   26031.83335647 -.00049195  00000+0 -31862-3 0  9992
2 67460  43.0004  57.1013 0001576 265.6378  64.0911 15.75066419  3894
STARLINK-36522          
1 67461U 26008S   26031.83335647  .00017665  00000+0  11791-3 0  9997
2 67461  43.0004  57.0960 0001528 263.9932  67.6569 15.75030526  3875
STARLINK-36504          
1 67462U 26008T   26031.83335647 -.00049789  00000+0 -32254-3 0  9999
2 67462  43.0003  57.0912 0001361 268.9235  64.6377 15.75066357  3895
STARLINK-36505          
1 67463U 26008U   26031.83335647 -.00064072  00000+0 -41647-3 0  9998
2 67463  43.0004  57.0871 0001578 275.0710  60.4035 15.75076345  3879
STARLINK-36421          
1 67464U 26008V   26031.83335647  .00012314  00000+0  83179-4 0  9996
2 67464  43.0004  57.0820 0001766 248.4423  88.9594 15.75031082  3872
STARLINK-36437          
1 67465U 26008W   26031.83335647 -.00057528  00000+0 -37349-3 0  9992
2 67465  43.0002  57.0766 0001580 257.2270  82.0859 15.75066080  3877
STARLINK-36520          
1 67466U 26008X   26031.83335647 -.00057861  00000+0 -37571-3 0  9990
2 67466  43.0001  57.0715 0001562 253.4872  87.7377 15.75065075  3877
STARLINK-36425          
1 67467U 26008Y   26031.83335647 -.02077776  00000+0 -15466-1 0  9997
2 67467  43.0002  57.0668 0001073 256.3490  86.8014 15.74926712  3872
STARLINK-36414          
1 67468U 26008Z   26031.83335647 -.00345512  00000+0 -23188-2 0  9993
2 67468  43.0006  56.7954 0002044 273.6526 177.6659 15.75237020  3874
STARLINK-36441          
1 67469U 26008AA  26031.83335647 -.00185608  00000+0 -12260-2 0  9991
2 67469  43.0004  56.7839 0001987 258.7329 196.4818 15.75146790  3874
STARLINK-36454          
1 67470U 26008AB  26031.83335647 -.00004025  00000+0 -23105-4 0  9998
2 67470  43.0051  56.7787 0001729 270.2726 186.8920 15.75034196  3877
STARLINK-36334          
1 67471U 26008AC  26031.83335647  .00154817  00000+0  99619-3 0  9994
2 67471  43.0004  56.7890 0000968 281.9663 171.3454 15.74955655  3876
